STARLINK-31634          
1 59330U 24057L   26068.34399953 -.00000424  00000+0 -58955-5 0  9993
2 59330  43.0040 189.2481 0001630 278.7256  81.3411 15.27574143109785
FLOCK 4G-2              
1 62661U 25009BE  26068.66207492  .00013752  00000+0  51068-3 0  9995
2 62661  97.4044 151.2221 0003181 329.2677  30.8376 15.27675260121321
